H1 CPF 01  gfz 2021 08 03 12  7152 tandemx   
H2 1003001  6202 36605    2021 08 03 12 59 42 2021 08 08 00 00 42   120 1 1  0 0 0
H9
10 0 59433  82062.000000  0    1309421.178  -1171261.794  -6667565.537
10 0 59433  82182.000000  0    1535826.066  -2023258.434  -6410095.289
10 0 59433  82302.000000  0    1720981.801  -2843795.173  -6040750.055
10 0 59433  82422.000000  0    1862339.293  -3617871.466  -5565898.973
10 0 59433  82542.000000  0    1958355.721  -4331227.117  -4993749.739
10 0 59433  82662.000000  0    2008508.473  -4970606.394  -4334216.186
10 0 59433  82782.000000  0    2013288.368  -5524008.536  -3598757.758
10 0 59433  82902.000000  0    1974171.613  -5980922.016  -2800189.777
10 0 59433  83022.000000  0    1893570.129  -6332535.570  -1952466.020
10 0 59433  83142.000000  0    1774761.323  -6571918.959  -1070436.090
10 0 59433  83262.000000  0    1621799.849  -6694170.939   -169584.138
10 0 59433  83382.000000  0    1439412.310  -6696527.172    734250.047
10 0 59433  83502.000000  0    1232876.910  -6578426.226   1625155.766
10 0 59433  83622.000000  0    1007891.536  -6341532.528   2487442.146
10 0 59433  83742.000000  0     770434.050  -5989711.079   3305923.642
10 0 59433  83862.000000  0     526616.830  -5528959.134   4066194.007
10 0 59433  83982.000000  0     282541.211  -4967296.428   4754883.734
10 0 59433  84102.000000  0      44154.571  -4314616.251   5359896.903
10 0 59433  84222.000000  0    -182885.964  -3582501.072   5870622.411
10 0 59433  84342.000000  0    -393339.870  -2784006.922   6278116.635
10 0 59433  84462.000000  0    -582498.024  -1933422.749   6575252.681
10 0 59433  84582.000000  0    -746283.168  -1046011.692   6756838.231
10 0 59433  84702.000000  0    -881334.390   -137735.593   6819702.177
10 0 59433  84822.000000  0    -985074.658    775033.088   6762747.089
10 0 59433  84942.000000  0   -1055759.355   1675806.185   6586966.917
10 0 59433  85062.000000  0   -1092505.255   2548276.993   6295430.574
10 0 59433  85182.000000  0   -1095300.307   3376615.414   5893231.830
10 0 59433  85302.000000  0   -1064993.956   4145757.110   5387405.391
10 0 59433  85422.000000  0   -1003267.177   4841681.083   4786809.896
10 0 59433  85542.000000  0    -912584.320   5451672.543   4101978.798
10 0 59433  85662.000000  0    -796125.895   5964563.167   3344938.593
10 0 59433  85782.000000  0    -657705.764   6370945.052   2529001.915
10 0 59433  85902.000000  0    -501672.921   6663356.089   1668530.978
10 0 59433  86022.000000  0    -332798.642   6836424.432    778679.201
10 0 59433  86142.000000  0    -156153.962   6886972.888   -124881.952
10 0 59433  86262.000000  0      23020.039   6814080.709  -1026247.263
10 0 59433  86382.000000  0     199445.920   6619098.529  -1909568.164
99
